#aV2023  5 28  0  0  0.00000000     288 DD+AD WGS84 FIT  NGA
## 2264      0.00000000   300.00000000 60092 0.0000000000000
+   32     1  2  3  4  5  6  7  8  9 10 11 12 13 14 15 16 17
+         18 19 20 21 22 23 24 25 26 27 28 29 30 31 32  0  0
+          0  0  0  0  0  0  0  0  0  0  0  0  0  0  0  0  0
+          0  0  0  0  0  0  0  0  0  0  0  0  0  0  0  0  0
+          0  0  0  0  0  0  0  0  0  0  0  0  0  0  0  0  0
++         2  2  2  2  2  2  2  2  2  2  2  2  2  2  2  2  2
++         2  2  2  2  2  2  2  2  2  2  2  2  2  2  2  0  0
++         0  0  0  0  0  0  0  0  0  0  0  0  0  0  0  0  0
++         0  0  0  0  0  0  0  0  0  0  0  0  0  0  0  0  0
++         0  0  0  0  0  0  0  0  0  0  0  0  0  0  0  0  0
%c cc cc ccc ccc cccc cccc cccc cccc ccccc ccccc ccccc ccccc
%c cc cc ccc ccc cccc cccc cccc cccc ccccc ccccc ccccc ccccc
%f  0.0000000  0.000000000  0.00000000000  0.000000000000000
%f  0.0000000  0.000000000  0.00000000000  0.000000000000000
%i    0    0    0    0      0      0      0      0         0
%i    0    0    0    0      0      0      0      0         0
/*      NGA, ST. LOUIS,MO.                                  
/*   EPHEMERIS COMPUTED FROM 2 DAYS OF DATA                 
/*   EPOCHA v8 SMOOTHER                                     
/*   G2139 IERS2010 SATIGS SATAPC                           
*  2023  5 28 20 55  0.00000000
P  1   8081.260568  13650.051105 -21702.555435    182.040126                    
V  1 -26510.691121   2369.076230  -8174.001064     -0.026179                    
P  2 -10513.288690  14983.192266 -18705.918796   -591.446852                    
V  2 -24716.728913   2875.522943  15979.316389      0.040014                    
P  3  12357.117093  23082.419910  -4972.981682   -289.136885                    
V  3  -5224.408023  -3781.486937 -31254.987546      0.121383                    
P  4   3416.090485  19954.664387  17146.034669     53.462548                    
V  4 -11284.052036  18721.647587 -19664.376895      0.100179                    
P  5    281.937538 -19518.960001  17780.459644   -128.963848                    
V  5  15476.029540  17039.446401  18393.915275     -0.014440                    
P  6  25639.379941  -5375.465129   4749.777865    587.216547                    
V  6   6054.568717   1258.108201 -31559.167755     -0.010395                    
P  7  21993.464828   7713.000821  13637.354252    166.722903                    
V  7 -16137.853536   3527.790216  24395.636372     -0.096469                    
P  8  -4982.914906  24868.626463  -7240.639320   -124.693173                    
V  8  -6376.694618   7294.556232  30126.038297     -0.019262                    
P  9  11551.619348  10996.480499  21160.430184   -148.550598                    
V  9 -11253.414406  24619.096976  -6668.702587      0.086150                    
P 10 -18345.806274  -3968.932356 -18739.116050    -38.844669                    
V 10 -13137.565222 -20123.372802  16662.672574     -0.015925                    
P 11  16060.796573 -12534.611687  17028.278346   -214.013305                    
V 11  21665.622363    702.818400 -19963.267851     -0.143861                    
P 12  -8575.508888 -24079.655080  -7648.041922   -381.709192                    
V 12   6899.353351   6691.053397 -29812.795554     -0.046808                    
P 13  13073.373004 -22931.796699  -1798.442017    526.387698                    
V 13   3401.830182   -307.412029  31974.567060      0.052656                    
P 14  19268.715600   6930.906454 -16983.390214     72.307305                    
V 14  10416.741984  18976.936160  19396.650006      0.126232                    
P 15   1256.330515 -25297.095427  -7994.181073     43.747292                    
V 15   6158.975589  -8255.330525  29009.811326      0.034875                    
P 16  -5529.299757  16896.969054  19276.267360   -496.872015                    
V 16 -14132.766050 -21005.874524  14577.321640      0.035458                    
P 17  17394.777630  -5235.172162 -18989.507085    716.462768                    
V 17 -10637.729660  22604.600207 -15525.311222      0.013520                    
P 18 -23813.606111  -5395.377435  10640.440704   -285.250911                    
V 18  13245.905940  -3028.681686  27952.030816     -0.154583                    
P 19  18625.887416 -12330.263675 -14354.140207    323.094565                    
V 19  -7413.105178  16456.741714 -24430.540291      0.051171                    
P 20   7765.335559 -13853.647756  21341.950618    431.056318                    
V 20  19475.340818  18766.758269   4916.905474     -0.020699                    
P 21  -1064.053827  15183.165034 -21127.898788    153.527645              E     
V 21 -27931.104710   4278.951126   5211.455709     -0.001949                    
P 22 -17730.066554  15988.342333 -11014.174842    488.955300                    
V 22   4892.661049 -14137.340543 -27440.429503      0.062115                    
P 23 -19785.827647 -14650.580847 -10159.965075     28.108355                    
V 23  -6161.151534 -11441.970444  28334.203166      0.033429                    
P 24  -3924.544077 -15503.775450 -21572.789867   -205.330134                    
V 24  26215.208482  -4829.587427   -898.338815     -0.135279                    
P 25 -17210.635335 -20192.328917   2725.789066    446.035597                    
V 25     23.051193  -4751.436784 -31169.195857      0.026217                    
P 26 -14402.433101   7035.758812  21092.885164    240.121400                    
V 26 -16958.064290 -21171.305269  -4152.248499     -0.006273                    
P 27 -12751.659425  22765.772669   3312.788284     27.849827                    
V 27   -823.204225  -5375.313398  31799.917723     -0.078642                    
P 28 -25905.400727   5241.951038   2579.929907     80.960563                    
V 28  -3640.656916  -2332.084465 -31547.230097      0.022284                    
P 29  -8342.721188 -14076.846854  20846.479153   -601.022913                    
V 29  13491.789791 -22905.750749 -10128.581620     -0.011932                    
P 30  26470.551840    344.071968   3621.436072   -514.497729                    
V 30  -4132.890676   3707.904004  30564.999016      0.023058                    
P 31 -20634.521592  10780.096789  13016.214584   -217.036092                    
V 31 -16765.259437   -915.300811 -25044.572684     -0.007433                    
P 32 -17448.431968   8223.082346 -17991.693015   -487.495303                    
V 32   7848.274173 -21996.739895 -17681.344786     -0.088843                    
EOF
